*******************************************************************************
JPL/HORIZONS                20 Massalia (A852 SA)          2023-Sep-04 11:03:55
Rec #:      20 (+COV) Soln.date: 2023-Aug-22_14:47:01   # obs: 9391 (1856-2023)
 
IAU76/J2000 helio. ecliptic osc. elements (au, days, deg., period=Julian yrs):
 
  EPOCH=  2457531.5 ! 2016-May-23.00 (TDB)         Residual RMS= .26634
   EC= .1426026666112739   QR= 2.065314448833214   TP= 2458153.2604362126
   OM= 206.1228957784824   W=  256.5958281201833   IN= .7083838528928184
   A= 2.40881837207306     MA= 196.0841027984469   ADIST= 2.752322295312906
   PER= 3.73865            N= .263631919           ANGMOM= .026425435
   DAN= 2.44051            DDN= 2.28432            L= 102.7177363
   B= -.6890858            MOID= 1.08368003        TP= 2018-Feb-03.7604362126
 
Asteroid physical parameters (km, seconds, rotational period in hours):
   GM= n.a.                RAD= 67.84              ROTPER= 8.098
   H= 6.54                 G= .250                 B-V= .854
                           ALBEDO= .241            STYP= S

ASTEROID comments: 
1: soln ref.= JPL#127, OCC=0
2: source=ORB
*******************************************************************************


*******************************************************************************
Ephemeris / API_USER Mon Sep  4 11:03:55 2023 Pasadena, USA      / Horizons
*******************************************************************************
Target body name: 20 Massalia (A852 SA)           {source: JPL#127}
Center body name: Solar System Barycenter (0)     {source: DE441}
Center-site name: BODY CENTER
*******************************************************************************
Start time      : A.D. 2023-Aug-12 00:00:00.0000 TDB
Stop  time      : A.D. 2023-Aug-13 00:00:00.0000 TDB
Step-size       : 2880 minutes
*******************************************************************************
Center geodetic : 0.0, 0.0, 0.0                   {E-lon(deg),Lat(deg),Alt(km)}
Center cylindric: 0.0, 0.0, 0.0                   {E-lon(deg),Dxy(km),Dz(km)}
Center radii    : (undefined)
Small perturbers: Yes                             {source: SB441-N16}
Output units    : KM-S
Calendar mode   : Mixed Julian/Gregorian
Output type     : GEOMETRIC cartesian states
Output format   : 2 (position and velocity)
Reference frame : Ecliptic of J2000.0
*******************************************************************************
Initial IAU76/J2000 heliocentric ecliptic osculating elements (au, days, deg.):
  EPOCH=  2457531.5 ! 2016-May-23.00 (TDB)         Residual RMS= .26634        
   EC= .1426026666112739   QR= 2.065314448833214   TP= 2458153.2604362126      
   OM= 206.1228957784824   W=  256.5958281201833   IN= .7083838528928184       
  Equivalent ICRF heliocentric cartesian coordinates (au, au/d):
   X= 1.156262382262708E+00  Y=-2.294374376335553E+00  Z=-9.577919313370008E-01
  VX= 8.595835343840556E-03 VY= 4.010877588161937E-03 VZ= 1.737046153928661E-03
Asteroid physical parameters (km, seconds, rotational period in hours):        
   GM= n.a.                RAD= 67.84              ROTPER= 8.098               
   H= 6.54                 G= .250                 B-V= .854                   
                           ALBEDO= .241            STYP= S                     
*******************************************************************************
JDTDB
   X     Y     Z
   VX    VY    VZ
*******************************************************************************
$$SOE
2460168.500000000 = A.D. 2023-Aug-12 00:00:00.0000 TDB 
 X = 4.259032750762735E+07 Y =-4.092794190659241E+08 Z = 4.821846407202959E+06
 VX= 1.658320549880105E+01 VY= 1.407984984430330E+00 VZ= 7.404318021300882E-02
$$EOE
*******************************************************************************
 
TIME

  Barycentric Dynamical Time ("TDB" or T_eph) output was requested. This
continuous coordinate time is equivalent to the relativistic proper time
of a clock at rest in a reference frame co-moving with the solar system
barycenter but outside the system's gravity well. It is the independent
variable in the solar system relativistic equations of motion.

  TDB runs at a uniform rate of one SI second per second and is independent
of irregularities in Earth's rotation.
 
CALENDAR SYSTEM

  Mixed calendar mode was active such that calendar dates after AD 1582-Oct-15
(if any) are in the modern Gregorian system. Dates prior to 1582-Oct-5 (if any)
are in the Julian calendar system, which is automatically extended for dates
prior to its adoption on 45-Jan-1 BC.  The Julian calendar is useful for
matching historical dates. The Gregorian calendar more accurately corresponds
to the Earth's orbital motion and seasons. A "Gregorian-only" calendar mode is
available if such physical events are the primary interest.

REFERENCE FRAME AND COORDINATES

  Ecliptic at the standard reference epoch

    Reference epoch: J2000.0
    X-Y plane: adopted Earth orbital plane at the reference epoch
               Note: IAU76 obliquity of 84381.448 arcseconds wrt ICRF X-Y plane
    X-axis   : ICRF
    Z-axis   : perpendicular to the X-Y plane in the directional (+ or -) sense
               of Earth's north pole at the reference epoch.

  Symbol meaning:

    JDTDB    Julian Day Number, Barycentric Dynamical Time
      X      X-component of position vector (km)
      Y      Y-component of position vector (km)
      Z      Z-component of position vector (km)
      VX     X-component of velocity vector (km/sec)                           
      VY     Y-component of velocity vector (km/sec)                           
      VZ     Z-component of velocity vector (km/sec)                           

ABERRATIONS AND CORRECTIONS

 Geometric state vectors have NO corrections or aberrations applied.

Computations by ...

    Solar System Dynamics Group, Horizons On-Line Ephemeris System
    4800 Oak Grove Drive, Jet Propulsion Laboratory
    Pasadena, CA  91109   USA

    General site: https://ssd.jpl.nasa.gov/
    Mailing list: https://ssd.jpl.nasa.gov/email_list.html
    System news : https://ssd.jpl.nasa.gov/horizons/news.html
    User Guide  : https://ssd.jpl.nasa.gov/horizons/manual.html
    Connect     : browser        https://ssd.jpl.nasa.gov/horizons/app.html#/x
                  API            https://ssd-api.jpl.nasa.gov/doc/horizons.html
                  command-line   telnet ssd.jpl.nasa.gov 6775
                  e-mail/batch   https://ssd.jpl.nasa.gov/ftp/ssd/hrzn_batch.txt
                  scripts        https://ssd.jpl.nasa.gov/ftp/ssd/SCRIPTS
    Author      : Jon.D.Giorgini@jpl.nasa.gov
*******************************************************************************
